start=new Date('2023-05-29T00:00:00.000Z').valueOf();
sats=[{"MEAN_MOTION_DOT":"0.00001854","APOAPSIS":"540.462","TLE_LINE1":"1 49766U 21115AU  23148.92966225  .00001854  00000-0  13455-3 0  9990","PERIAPSIS":"539.008","LAUNCH_DATE":"2021-12-02","MEAN_MOTION_DDOT":"0.0000000000000","PERIOD":"95.437","CLASSIFICATION_TYPE":"U","RCS_SIZE":"LARGE","MEAN_ELEMENT_THEORY":"SGP4","REV_AT_EPOCH":"8233","GP_ID":"232705760","BSTAR":"0.00013455000000","INCLINATION":"53.2177","EPOCH":"2023-05-28T22:18:42.818400","SITE":"AFETR","DECAY_DATE":null,"FILE":"3919546","COUNTRY_CODE":"US","CENTER_NAME":"EARTH","OBJECT_NAME":"STARLINK-3190","SEMIMAJOR_AXIS":"6917.870","NORAD_CAT_ID":"49766","OBJECT_TYPE":"PAYLOAD","RA_OF_ASC_NODE":"19.0510","REF_FRAME":"TEME","ARG_OF_PERICENTER":"75.4573","ELEMENT_SET_NO":"999","MEAN_ANOMALY":"284.6535","TIME_SYSTEM":"UTC","OBJECT_ID":"2021-115AU","EPHEMERIS_TYPE":"0","TLE_LINE2":"2 49766  53.2177  19.0510 0001051  75.4573 284.6535 15.08843352 82331","MEAN_MOTION":"15.08843352","ECCENTRICITY":"0.00010510"},{"MEAN_MOTION_DOT":"0.00000833","LAUNCH_DATE":"2021-12-02","PERIAPSIS":"538.945","TLE_LINE1":"1 49767U 21115AV  23148.92134336  .00000833  00000-0  70399-4 0  9998","APOAPSIS":"540.522","RCS_SIZE":"LARGE","CLASSIFICATION_TYPE":"U","PERIOD":"95.437","MEAN_MOTION_DDOT":"0.0000000000000","BSTAR":"0.00007039900000","GP_ID":"232705510","REV_AT_EPOCH":"8233","MEAN_ELEMENT_THEORY":"SGP4","DECAY_DATE":null,"FILE":"3919546","SITE":"AFETR","EPOCH":"2023-05-28T22:06:44.066304","INCLINATION":"53.2187","REF_FRAME":"TEME","RA_OF_ASC_NODE":"19.0791","OBJECT_TYPE":"PAYLOAD","NORAD_CAT_ID":"49767","SEMIMAJOR_AXIS":"6917.869","OBJECT_NAME":"STARLINK-3192","CENTER_NAME":"EARTH","COUNTRY_CODE":"US","MEAN_ANOMALY":"273.5261","ELEMENT_SET_NO":"999","ARG_OF_PERICENTER":"86.5862","ECCENTRICITY":"0.00011400","TLE_LINE2":"2 49767  53.2187  19.0791 0001140  86.5862 273.5261 15.08843863 82337","MEAN_MOTION":"15.08843863","OBJECT_ID":"2021-115AV","EPHEMERIS_TYPE":"0","TIME_SYSTEM":"UTC"},{"MEAN_MOTION_DOT":"0.00001401","APOAPSIS":"540.452","TLE_LINE1":"1 49768U 21115AW  23148.93606437  .00001401  00000-0  10610-3 0  9997","LAUNCH_DATE":"2021-12-02","PERIAPSIS":"539.016","MEAN_MOTION_DDOT":"0.0000000000000","PERIOD":"95.437","CLASSIFICATION_TYPE":"U","RCS_SIZE":"LARGE","MEAN_ELEMENT_THEORY":"SGP4","REV_AT_EPOCH":"8233","GP_ID":"232706762","BSTAR":"0.00010610000000","EPOCH":"2023-05-28T22:27:55.961568","INCLINATION":"53.2183","SITE":"AFETR","DECAY_DATE":null,"FILE":"3919546","CENTER_NAME":"EARTH","COUNTRY_CODE":"US","SEMIMAJOR_AXIS":"6917.869","OBJECT_NAME":"STARLINK-3196","NORAD_CAT_ID":"49768","RA_OF_ASC_NODE":"19.0129","OBJECT_TYPE":"PAYLOAD","REF_FRAME":"TEME","ARG_OF_PERICENTER":"88.8061","ELEMENT_SET_NO":"999","MEAN_ANOMALY":"271.3050","TIME_SYSTEM":"UTC","OBJECT_ID":"2021-115AW","EPHEMERIS_TYPE":"0","MEAN_MOTION":"15.08843595","TLE_LINE2":"2 49768  53.2183  19.0129 0001038  88.8061 271.3050 15.08843595 82335","ECCENTRICITY":"0.00010380"},{"DECAY_DATE":null,"FILE":"3919546","SITE":"AFETR","INCLINATION":"53.2177","EPOCH":"2023-05-28T22:29:19.377312","REF_FRAME":"TEME","NORAD_CAT_ID":"49769","OBJECT_TYPE":"PAYLOAD","RA_OF_ASC_NODE":"19.0618","CENTER_NAME":"EARTH","COUNTRY_CODE":"US","SEMIMAJOR_AXIS":"6917.877","OBJECT_NAME":"STARLINK-3208","ELEMENT_SET_NO":"999","MEAN_ANOMALY":"276.7090","ARG_OF_PERICENTER":"83.4018","ECCENTRICITY":"0.00010200","EPHEMERIS_TYPE":"0","OBJECT_ID":"2021-115AX","TLE_LINE2":"2 49769  53.2177  19.0618 0001020  83.4018 276.7090 15.08841003 82331","MEAN_MOTION":"15.08841003","TIME_SYSTEM":"UTC","MEAN_MOTION_DOT":"0.00002128","PERIAPSIS":"539.037","LAUNCH_DATE":"2021-12-02","TLE_LINE1":"1 49769U 21115AX  23148.93702983  .00002128  00000-0  15175-3 0  9999","APOAPSIS":"540.448","CLASSIFICATION_TYPE":"U","RCS_SIZE":"LARGE","MEAN_MOTION_DDOT":"0.0000000000000","PERIOD":"95.437","BSTAR":"0.00015175000000","REV_AT_EPOCH":"8233","GP_ID":"232706512","MEAN_ELEMENT_THEORY":"SGP4"},{"PERIAPSIS":"539.061","LAUNCH_DATE":"2021-12-02","TLE_LINE1":"1 49770U 21115AY  23148.87815186  .00001651  00000-0  12177-3 0  9993","APOAPSIS":"540.433","MEAN_MOTION_DOT":"0.00001651","BSTAR":"0.00012177000000","GP_ID":"232705260","REV_AT_EPOCH":"8344","MEAN_ELEMENT_THEORY":"SGP4","CLASSIFICATION_TYPE":"U","RCS_SIZE":"LARGE","MEAN_MOTION_DDOT":"0.0000000000000","PERIOD":"95.438","REF_FRAME":"TEME","NORAD_CAT_ID":"49770","OBJECT_TYPE":"PAYLOAD","RA_OF_ASC_NODE":"19.3234","CENTER_NAME":"EARTH","COUNTRY_CODE":"US","OBJECT_NAME":"STARLINK-3191","SEMIMAJOR_AXIS":"6917.882","FILE":"3919546","DECAY_DATE":null,"SITE":"AFETR","EPOCH":"2023-05-28T21:04:32.320704","INCLINATION":"53.2171","ECCENTRICITY":"0.00009910","OBJECT_ID":"2021-115AY","EPHEMERIS_TYPE":"0","MEAN_MOTION":"15.08839453","TLE_LINE2":"2 49770  53.2171  19.3234 0000991  87.0883 273.0222 15.08839453 83446","TIME_SYSTEM":"UTC","ELEMENT_SET_NO":"999","MEAN_ANOMALY":"273.0222","ARG_OF_PERICENTER":"87.0883"},{"MEAN_ANOMALY":"276.8964","ELEMENT_SET_NO":"999","ARG_OF_PERICENTER":"83.2161","MEAN_MOTION":"15.08838734","TLE_LINE2":"2 49771  53.2179  19.2805 0001168  83.2161 276.8964 15.08838734 82323","EPHEMERIS_TYPE":"0","OBJECT_ID":"2021-115AZ","ECCENTRICITY":"0.00011680","TIME_SYSTEM":"UTC","SITE":"AFETR","DECAY_DATE":null,"FILE":"3919546","EPOCH":"2023-05-28T21:03:09.194400","INCLINATION":"53.2179","OBJECT_TYPE":"PAYLOAD","RA_OF_ASC_NODE":"19.2805","NORAD_CAT_ID":"49771","REF_FRAME":"TEME","SEMIMAJOR_AXIS":"6917.884","OBJECT_NAME":"STARLINK-3201","CENTER_NAME":"EARTH","COUNTRY_CODE":"US","RCS_SIZE":"LARGE","CLASSIFICATION_TYPE":"U","PERIOD":"95.438","MEAN_MOTION_DDOT":"0.0000000000000","BSTAR":"0.00009229700000","MEAN_ELEMENT_THEORY":"SGP4","REV_AT_EPOCH":"8232","GP_ID":"232706011","MEAN_MOTION_DOT":"0.00001181","LAUNCH_DATE":"2021-12-02","PERIAPSIS":"538.941","APOAPSIS":"540.557","TLE_LINE1":"1 49771U 21115AZ  23148.87718975  .00001181  00000-0  92297-4 0  9992"},{"EPOCH":"2023-05-28T05:33:11.165472","INCLINATION":"53.2157","FILE":"3919252","DECAY_DATE":null,"SITE":"AFWTR","OBJECT_NAME":"STARLINK-3317","SEMIMAJOR_AXIS":"6917.875","CENTER_NAME":"EARTH","COUNTRY_CODE":"US","REF_FRAME":"TEME","OBJECT_TYPE":"PAYLOAD","RA_OF_ASC_NODE":"132.1748","NORAD_CAT_ID":"50156","ARG_OF_PERICENTER":"92.9638","MEAN_ANOMALY":"267.1478","ELEMENT_SET_NO":"999","TIME_SYSTEM":"UTC","ECCENTRICITY":"0.00010750","MEAN_MOTION":"15.08841631","TLE_LINE2":"2 50156  53.2157 132.1748 0001075  92.9638 267.1478 15.08841631 83180","OBJECT_ID":"2021-125A","EPHEMERIS_TYPE":"0","MEAN_MOTION_DOT":"0.00000302","TLE_LINE1":"1 50156U 21125A   23148.23137923  .00000302  00000-0  37050-4 0  9990","APOAPSIS":"540.484","PERIAPSIS":"538.997","LAUNCH_DATE":"2021-12-18","PERIOD":"95.437","MEAN_MOTION_DDOT":"0.0000000000000","RCS_SIZE":"LARGE","CLASSIFICATION_TYPE":"U","GP_ID":"232671736","REV_AT_EPOCH":"8318","MEAN_ELEMENT_THEORY":"SGP4","BSTAR":"0.00003705000000"},{"FILE":"3919252","DECAY_DATE":null,"SITE":"AFWTR","INCLINATION":"53.2155","EPOCH":"2023-05-28T06:07:35.179392","REF_FRAME":"TEME","OBJECT_TYPE":"PAYLOAD","RA_OF_ASC_NODE":"142.0696","NORAD_CAT_ID":"50157","OBJECT_NAME":"STARLINK-3313","SEMIMAJOR_AXIS":"6917.883","COUNTRY_CODE":"US","CENTER_NAME":"EARTH","MEAN_ANOMALY":"275.8046","ELEMENT_SET_NO":"999","ARG_OF_PERICENTER":"84.3060","ECCENTRICITY":"0.00010010","TLE_LINE2":"2 50157  53.2155 142.0696 0001001  84.3060 275.8046 15.08839208 83054","MEAN_MOTION":"15.08839208","EPHEMERIS_TYPE":"0","OBJECT_ID":"2021-125B","TIME_SYSTEM":"UTC","MEAN_MOTION_DOT":"0.00000383","LAUNCH_DATE":"2021-12-18","PERIAPSIS":"539.055","TLE_LINE1":"1 50157U 21125B   23148.25526828  .00000383  00000-0  42135-4 0  9998","APOAPSIS":"540.440","RCS_SIZE":"LARGE","CLASSIFICATION_TYPE":"U","PERIOD":"95.438","MEAN_MOTION_DDOT":"0.0000000000000","BSTAR":"0.00004213500000","GP_ID":"232672987","REV_AT_EPOCH":"8305","MEAN_ELEMENT_THEORY":"SGP4"},{"ELEMENT_SET_NO":"999","MEAN_ANOMALY":"273.6385","ARG_OF_PERICENTER":"86.4731","EPHEMERIS_TYPE":"0","OBJECT_ID":"2021-125C","MEAN_MOTION":"15.08841513","TLE_LINE2":"2 50158  53.2159 140.0417 0001080  86.4731 273.6385 15.08841513 83147","ECCENTRICITY":"0.00010800","TIME_SYSTEM":"UTC","SITE":"AFWTR","DECAY_DATE":null,"FILE":"3919546","EPOCH":"2023-05-28T17:00:45.904032","INCLINATION":"53.2159","NORAD_CAT_ID":"50158","RA_OF_ASC_NODE":"140.0417","OBJECT_TYPE":"PAYLOAD","REF_FRAME":"TEME","CENTER_NAME":"EARTH","COUNTRY_CODE":"US","SEMIMAJOR_AXIS":"6917.876","OBJECT_NAME":"STARLINK-3309","CLASSIFICATION_TYPE":"U","RCS_SIZE":"LARGE","MEAN_MOTION_DDOT":"0.0000000000000","PERIOD":"95.437","BSTAR":"0.00006605400000","MEAN_ELEMENT_THEORY":"SGP4","REV_AT_EPOCH":"8314","GP_ID":"232707025","MEAN_MOTION_DOT":"0.00000764","PERIAPSIS":"538.994","LAUNCH_DATE":"2021-12-18","APOAPSIS":"540.488","TLE_LINE1":"1 50158U 21125C   23148.70886463  .00000764  00000-0  66054-4 0  9992"},{"INCLINATION":"53.2158","EPOCH":"2023-05-28T16:55:27.850944","SITE":"AFWTR","DECAY_DATE":null,"FILE":"3919546","COUNTRY_CODE":"US","CENTER_NAME":"EARTH","SEMIMAJOR_AXIS":"6917.878","OBJECT_NAME":"STARLINK-3297","NORAD_CAT_ID":"50159","OBJECT_TYPE":"PAYLOAD","RA_OF_ASC_NODE":"140.0628","REF_FRAME":"TEME","ARG_OF_PERICENTER":"82.4373","ELEMENT_SET_NO":"999","MEAN_ANOMALY":"277.6744","TIME_SYSTEM":"UTC","EPHEMERIS_TYPE":"0","OBJECT_ID":"2021-125D","MEAN_MOTION":"15.08840790","TLE_LINE2":"2 50159  53.2158 140.0628 0001098  82.4373 277.6744 15.08840790 83079","ECCENTRICITY":"0.00010980","MEAN_MOTION_DOT":"0.00000578","APOAPSIS":"540.503","TLE_LINE1":"1 50159U 21125D   23148.70518346  .00000578  00000-0  54397-4 0  9995","LAUNCH_DATE":"2021-12-18","PERIAPSIS":"538.983","MEAN_MOTION_DDOT":"0.0000000000000","PERIOD":"95.438","CLASSIFICATION_TYPE":"U","RCS_SIZE":"LARGE","MEAN_ELEMENT_THEORY":"SGP4","GP_ID":"232705773","REV_AT_EPOCH":"8307","BSTAR":"0.00005439700000"}];
